NORAD_CAT_ID,OBJECT_NAME,OBJECT_TYPE,EPOCH,MEAN_MOTION,ECCENTRICITY,INCLINATION,RA_OF_ASC_NODE,ARG_OF_PERICENTER,MEAN_ANOMALY,BSTAR,MEAN_MOTION_DOT,MEAN_MOTION_DDOT,TLE_LINE0,TLE_LINE1,TLE_LINE2,SEMIMAJOR_AXIS,PERIOD,APOGEE,PERIGEE,DECAYED
52585.0,STARLINK-3906,PAYLOAD,2022-09-09 22:00:00,15.08851554,0.0001471,53.2178,90.7728,59.9748,108.0953,-0.00096302,-0.00015587,0.0,0 STARLINK-3906,1 52585U 22051BB  22252.91667824 -.00015587  00000-0 -96302-3 0  9992,2 52585  53.2178  90.7728 0001471  59.9748 108.0953 15.08851554 18907,6917.845,95.437,540.7280000000002,538.692,0.0
52585.0,STARLINK-3906,PAYLOAD,2022-09-10 14:00:01,15.08846282,0.000137,53.2181,87.7781,67.7452,123.5065,0.00033567,5.059e-05,0.0,0 STARLINK-3906,1 52585U 22051BB  22253.58334491  .00005059  00000-0  33567-3 0  9992,2 52585  53.2181  87.7781 0001370  67.7452 123.5065 15.08846282  1307,6917.861,95.437,540.674,538.778,0.0
52585.0,STARLINK-3906,PAYLOAD,2022-09-10 22:00:00,15.08830865,0.0001551,53.2181,86.2833,58.6281,144.2317,-0.00025928,-4.411e-05,0.0,0 STARLINK-3906,1 52585U 22051BB  22253.91667824 -.00004411  00000-0 -25928-3 0  9993,2 52585  53.2181  86.2833 0001551  58.6281 144.2317 15.08830865  1309,6917.908,95.438,540.846,538.7,0.0
52585.0,STARLINK-3906,PAYLOAD,2022-09-11 06:00:00,15.08838041,0.0001474,53.2182,84.7854,63.1759,151.2676,-0.00090992,-0.00014739,0.0,0 STARLINK-3906,1 52585U 22051BB  22254.25001157 -.00014739  00000-0 -90992-3 0  9999,2 52585  53.2182  84.7854 0001474  63.1759 151.2676 15.08838041 19108,6917.886,95.438,540.771,538.732,0.0
52585.0,STARLINK-3906,PAYLOAD,2022-09-11 14:00:01,15.088447899999998,0.0001496,53.2186,83.2888,68.2233,157.8008,0.00023921,3.522e-05,0.0,0 STARLINK-3906,1 52585U 22051BB  22254.58334491  .00003522  00000-0  23921-3 0  9999,2 52585  53.2186  83.2888 0001496  68.2233 157.8008 15.08844790  1302,6917.866,95.437,540.766,538.696,0.0
52585.0,STARLINK-3906,PAYLOAD,2022-09-11 22:00:00,15.0883335,0.0001585999999999,53.2186,81.794,58.5538,179.0758,0.0013402999999999,0.00021103,0.0,0 STARLINK-3906,1 52585U 22051BB  22254.91667824  .00021103  00000-0  13403-2 0  9993,2 52585  53.2186  81.7940 0001586  58.5538 179.0758 15.08833350 19211,6917.901,95.438,540.863,538.669,0.0
52585.0,STARLINK-3906,PAYLOAD,2022-09-12 12:00:00,15.08828705,0.0001365,53.2189,79.1733,67.1957,100.7251,0.0018992,0.00030058,0.0,0 STARLINK-3906,1 52585U 22051BB  22255.50001157  .00030058  00000-0  18992-2 0  9997,2 52585  53.2189  79.1733 0001365  67.1957 100.7251 15.08828705 19296,6917.915,95.438,540.724,538.836,0.0
52585.0,STARLINK-3906,PAYLOAD,2022-09-12 14:00:01,15.08846232,0.0001375999999999,53.219,78.7996,66.01100000000001,194.801,5.486999999999999e-07,-2.79e-06,0.0,0 STARLINK-3906,1 52585U 22051BB  22255.58334491 -.00000279  00000-0  54870-6 0  9997,2 52585  53.2190  78.7996 0001376  66.0110 194.8010 15.08846232  1300,6917.861,95.437,540.678,538.774,0.0
52585.0,STARLINK-3906,PAYLOAD,2022-09-12 22:00:00,15.08829584,0.0001521999999999,53.2189,77.3048,57.0033,215.4148,0.0020521,0.00032513,0.0,0 STARLINK-3906,1 52585U 22051BB  22255.91667824  .00032513  00000-0  20521-2 0  9990,2 52585  53.2189  77.3048 0001522  57.0033 215.4148 15.08829584  1301,6917.9119999999975,95.438,540.83,538.724,0.0
52585.0,STARLINK-3906,PAYLOAD,2022-09-13 06:00:00,15.08842028,0.0001423,53.219,75.8069,63.2177,220.803,-0.0011243,-0.00018137,0.0,0 STARLINK-3906,1 52585U 22051BB  22256.25001157 -.00018137  00000-0 -11243-2 0  9998,2 52585  53.2190  75.8069 0001423  63.2177 220.8030 15.08842028 19416,6917.874,95.437,540.724,538.755,0.0
52585.0,STARLINK-3906,PAYLOAD,2022-09-13 14:00:01,15.08851332,0.0001428,53.2192,74.3107,67.2564,228.348,-0.00044551,-7.373e-05,0.0,0 STARLINK-3906,1 52585U 22051BB  22256.58334491 -.00007373  00000-0 -44551-3 0  9993,2 52585  53.2192  74.3107 0001428  67.2564 228.3480 15.08851332  1303,6917.846,95.437,540.6990000000002,538.7230000000002,0.0
52585.0,STARLINK-3906,PAYLOAD,2022-09-13 22:00:00,15.08828341,0.0001499,53.219,72.8159,57.2392,249.9741,0.00018423,2.644e-05,0.0,0 STARLINK-3906,1 52585U 22051BB  22256.91667824  .00002644  00000-0  18423-3 0  9992,2 52585  53.2190  72.8159 0001499  57.2392 249.9741 15.08828341  1300,6917.916,95.438,540.818,538.744,0.0
52585.0,STARLINK-3906,PAYLOAD,2022-09-14 14:00:01,15.08844973,0.0001331999999999,53.2191,69.8221,65.2916,265.0679,-0.00091035,-0.00014749,0.0,0 STARLINK-3906,1 52585U 22051BB  22257.58334491 -.00014749  00000-0 -91035-3 0  9998,2 52585  53.2191  69.8221 0001332  65.2916 265.0679 15.08844973  1302,6917.865,95.437,540.6519999999998,538.809,0.0
52585.0,STARLINK-3906,PAYLOAD,2022-09-14 22:00:00,15.08815899,0.000145,53.2189,68.3273,56.4911,285.4684,0.0030514,0.00048578,0.0,0 STARLINK-3906,1 52585U 22051BB  22257.91667824  .00048578  00000-0  30514-2 0  9993,2 52585  53.2189  68.3273 0001450  56.4911 285.4684 15.08815899  1305,6917.954000000002,95.439,540.822,538.816,0.0
52585.0,STARLINK-3906,PAYLOAD,2022-09-15 06:00:00,15.08842774,0.0001349,53.2189,66.8294,63.8623,289.6897,0.00011185,1.493e-05,0.0,0 STARLINK-3906,1 52585U 22051BB  22258.25001157  .00001493  00000-0  11185-3 0  9991,2 52585  53.2189  66.8294 0001349  63.8623 289.6897 15.08842774 19718,6917.871999999999,95.437,540.67,538.804,0.0
52585.0,STARLINK-3906,PAYLOAD,2022-09-15 14:00:01,15.08855754,0.0001462,53.219,65.3336,65.6735,299.4764,-0.002202,-0.00035177,0.0,0 STARLINK-3906,1 52585U 22051BB  22258.58334491 -.00035177  00000-0 -22020-2 0  9994,2 52585  53.2190  65.3336 0001462  65.6735 299.4764 15.08855754  1301,6917.831999999999,95.437,540.7090000000002,538.686,0.0
52585.0,STARLINK-3906,PAYLOAD,2022-09-15 16:00:00,15.08842676,0.0001525,53.2188,64.9601,63.2398,34.8151,-0.0012671,-0.00020399,0.0,0 STARLINK-3906,1 52585U 22051BB  22258.66667824 -.00020399  00000-0 -12671-2 0  9993,2 52585  53.2188  64.9601 0001525  63.2398  34.8151 15.08842676  1307,6917.871999999999,95.437,540.7919999999998,538.682,0.0
52585.0,STARLINK-3906,PAYLOAD,2022-09-16 04:17:09,15.08832311,0.0001452,53.22,62.6616,62.1314,297.9825,8.764299999999999e-05,1.107e-05,0.0,0 STARLINK-3906,1 52585U 22051BB  22259.17858210  .00001107  00000-0  87643-4 0  9998,2 52585  53.2200  62.6616 0001452  62.1314 297.9825 15.08832311 19852,6917.904,95.438,540.773,538.764,0.0
52585.0,STARLINK-3906,PAYLOAD,2022-09-16 10:38:41,15.08836488,0.0001478,53.22,61.4719,62.4838,297.6304,0.00011582,1.556e-05,0.0,0 STARLINK-3906,1 52585U 22051BB  22259.44353992  .00001556  00000-0  11582-3 0  9991,2 52585  53.2200  61.4719 0001478  62.4838 297.6304 15.08836488 19820,6917.891,95.438,540.779,538.734,0.0
52585.0,STARLINK-3906,PAYLOAD,2022-09-16 13:49:27,15.08840327,0.0001501,53.2201,60.8774,62.4485,297.666,0.00014102,1.957e-05,0.0,0 STARLINK-3906,1 52585U 22051BB  22259.57601697  .00001957  00000-0  14102-3 0  9999,2 52585  53.2201  60.8774 0001501  62.4485 297.6660 15.08840327 19844,6917.879,95.438,540.783,538.706,0.0
52585.0,STARLINK-3906,PAYLOAD,2022-09-17 04:07:57,15.08820012,0.0001581,53.2203,58.2016,64.0605,296.055,0.00014528,2.024e-05,0.0,0 STARLINK-3906,1 52585U 22051BB  22260.17219131  .00002024  00000-0  14528-3 0  9993,2 52585  53.2203  58.2016 0001581  64.0605 296.0550 15.08820012 20006,6917.941,95.439,540.9,538.7130000000002,0.0
52585.0,STARLINK-3906,PAYLOAD,2022-09-17 05:43:20,15.08834167,0.000145,53.2205,57.9046,63.9539,296.1603,-2.696e-05,-7.17e-06,0.0,0 STARLINK-3906,1 52585U 22051BB  22260.23842717 -.00000717  00000-0 -26960-4 0  9995,2 52585  53.2205  57.9046 0001450  63.9539 296.1603 15.08834167 19943,6917.898,95.438,540.766,538.76,0.0
52585.0,STARLINK-3906,PAYLOAD,2022-09-17 16:51:01,15.0884937,0.0001492,53.2205,55.822,61.6279,298.4864,-4.0907e-05,-9.39e-06,0.0,0 STARLINK-3906,1 52585U 22051BB  22260.70209779 -.00000939  00000-0 -40907-4 0  9995,2 52585  53.2205  55.8220 0001492  61.6279 298.4864 15.08849370 20089,6917.852,95.437,540.749,538.685,0.0
52585.0,STARLINK-3906,PAYLOAD,2022-09-18 03:58:43,15.08799587,0.000124,53.2207,53.7424,62.042,298.0698,0.00057646,8.888e-05,0.0,0 STARLINK-3906,1 52585U 22051BB  22261.16578216  .00008888  00000-0  57646-3 0  9997,2 52585  53.2207  53.7424 0001240  62.0420 298.0698 15.08799587 20151,6918.004,95.44,540.727,539.011,0.0
52585.0,STARLINK-3906,PAYLOAD,2022-09-18 10:20:16,15.08838787,0.000156,53.2206,52.5528,59.2344,300.8802,-6.5733e-06,-3.93e-06,0.0,0 STARLINK-3906,1 52585U 22051BB  22261.43074331 -.00000393  00000-0 -65733-5 0  9999,2 52585  53.2206  52.5528 0001560  59.2344 300.8802 15.08838787 20199,6917.884,95.438,540.828,538.67,0.0
52585.0,STARLINK-3906,PAYLOAD,2022-09-18 11:55:39,15.08836042,0.0001530999999999,53.2205,52.2549,59.8468,300.2676,-2.1976e-05,-6.38e-06,0.0,0 STARLINK-3906,1 52585U 22051BB  22261.49698540 -.00000638  00000-0 -21976-4 0  9991,2 52585  53.2205  52.2549 0001531  59.8468 300.2676 15.08836042 20138,6917.892,95.438,540.817,538.698,0.0
52585.0,STARLINK-3906,PAYLOAD,2022-09-18 15:06:25,15.08837887,0.000154,53.2206,51.6602,60.2986,299.8159,-1.2905e-05,-4.93e-06,0.0,0 STARLINK-3906,1 52585U 22051BB  22261.62946373 -.00000493  00000-0 -12905-4 0  9997,2 52585  53.2206  51.6602 0001540  60.2986 299.8159 15.08837887 20152,6917.887,95.438,540.817,538.686,0.0
52585.0,STARLINK-3906,PAYLOAD,2022-09-19 11:46:26,15.08838987,0.0001395,53.2207,47.7943,59.8222,300.2908,3.3163e-05,2.4e-06,0.0,0 STARLINK-3906,1 52585U 22051BB  22262.49058217  .00000240  00000-0  33163-4 0  9991,2 52585  53.2207  47.7943 0001395  59.8222 300.2908 15.08838987 20355,6917.8830000000025,95.438,540.714,538.783,0.0
52585.0,STARLINK-3906,PAYLOAD,2022-09-20 11:37:13,15.08834039,0.0001631,53.2208,43.3345,52.4762,307.6378,3.4558000000000004e-05,2.62e-06,0.0,0 STARLINK-3906,1 52585U 22051BB  22263.48418511  .00000262  00000-0  34558-4 0  9991,2 52585  53.2208  43.3345 0001631  52.4762 307.6378 15.08834039 20430,6917.899,95.438,540.8919999999998,538.635,0.0
